{
  "links" : {
    "next" : "https://api.nasa.gov/neo/rest/v1/feed?start_date=1998-05-16&end_date=1998-05-16&detailed=true&api_key=t0TVs3DtDT2H8Oy2Zy8m2eVrNsAVKAexjcZXUckd",
    "prev" : "https://api.nasa.gov/neo/rest/v1/feed?start_date=1998-05-14&end_date=1998-05-14&detailed=true&api_key=t0TVs3DtDT2H8Oy2Zy8m2eVrNsAVKAexjcZXUckd",
    "self" : "https://api.nasa.gov/neo/rest/v1/feed?start_date=1998-05-15&end_date=1998-05-15&detailed=true&api_key=t0TVs3DtDT2H8Oy2Zy8m2eVrNsAVKAexjcZXUckd"
  },
  "element_count" : 2,
  "near_earth_objects" : {
    "1998-05-15" : [ {
      "links" : {
        "self" : "https://api.nasa.gov/neo/rest/v1/neo/3476774?api_key=t0TVs3DtDT2H8Oy2Zy8m2eVrNsAVKAexjcZXUckd"
      },
      "neo_reference_id" : "3476774",
      "name" : "(2009 WA)",
      "nasa_jpl_url" : "http://ssd.jpl.nasa.gov/sbdb.cgi?sstr=3476774",
      "absolute_magnitude_h" : 21.2,
      "estimated_diameter" : {
        "kilometers" : {
          "estimated_diameter_min" : 0.1529519353,
          "estimated_diameter_max" : 0.3420109247
        },
        "meters" : {
          "estimated_diameter_min" : 152.9519353442,
          "estimated_diameter_max" : 342.0109247198
        },
        "miles" : {
          "estimated_diameter_min" : 0.095039897,
          "estimated_diameter_max" : 0.2125156703
        },
        "feet" : {
          "estimated_diameter_min" : 501.8108275547,
          "estimated_diameter_max" : 1122.0831222578
        }
      },
      "is_potentially_hazardous_asteroid" : false,
      "close_approach_data" : [ {
        "close_approach_date" : "1998-05-15",
        "epoch_date_close_approach" : 895215600000,
        "relative_velocity" : {
          "kilometers_per_second" : "15.2386309158",
          "kilometers_per_hour" : "54859.0712969585",
          "miles_per_hour" : "34087.2934956018"
        },
        "miss_distance" : {
          "astronomical" : "0.4168629222",
          "lunar" : "162.1596832275",
          "kilometers" : "62361808",
          "miles" : "38749832"
        },
        "orbiting_body" : "Earth"
      } ],
      "orbital_data" : {
        "orbit_id" : "19",
        "orbit_determination_date" : "2017-04-06 08:59:11",
        "orbit_uncertainty" : "1",
        "minimum_orbit_intersection" : ".0704208",
        "jupiter_tisserand_invariant" : "5.384",
        "epoch_osculation" : "2458000.5",
        "eccentricity" : ".1447439232808042",
        "semi_major_axis" : "1.135689488077611",
        "inclination" : "29.84317036312066",
        "ascending_node_longitude" : "47.5551660030327",
        "orbital_period" : "442.0667348497929",
        "perihelion_distance" : ".9713053359444894",
        "perihelion_argument" : "71.15228489359571",
        "aphelion_distance" : "1.300073640210733",
        "perihelion_time" : "2457873.884153338358",
        "mean_anomaly" : "103.110460943593",
        "mean_motion" : ".8143566833236664",
        "equinox" : "J2000"
      }
    }, {
      "links" : {
        "self" : "https://api.nasa.gov/neo/rest/v1/neo/3638287?api_key=t0TVs3DtDT2H8Oy2Zy8m2eVrNsAVKAexjcZXUckd"
      },
      "neo_reference_id" : "3638287",
      "name" : "(2013 JL14)",
      "nasa_jpl_url" : "http://ssd.jpl.nasa.gov/sbdb.cgi?sstr=3638287",
      "absolute_magnitude_h" : 24.5,
      "estimated_diameter" : {
        "kilometers" : {
          "estimated_diameter_min" : 0.0334622374,
          "estimated_diameter_max" : 0.0748238376
        },
        "meters" : {
          "estimated_diameter_min" : 33.4622374455,
          "estimated_diameter_max" : 74.8238376074
        },
        "miles" : {
          "estimated_diameter_min" : 0.0207924639,
          "estimated_diameter_max" : 0.0464933628
        },
        "feet" : {
          "estimated_diameter_min" : 109.7842471007,
          "estimated_diameter_max" : 245.4850393757
        }
      },
      "is_potentially_hazardous_asteroid" : false,
      "close_approach_data" : [ {
        "close_approach_date" : "1998-05-15",
        "epoch_date_close_approach" : 895215600000,
        "relative_velocity" : {
          "kilometers_per_second" : "15.0082234403",
          "kilometers_per_hour" : "54029.6043849184",
          "miles_per_hour" : "33571.8950135066"
        },
        "miss_distance" : {
          "astronomical" : "0.0429409788",
          "lunar" : "16.7040405273",
          "kilometers" : "6423879",
          "miles" : "3991613.25"
        },
        "orbiting_body" : "Earth"
      } ],
      "orbital_data" : {
        "orbit_id" : "7",
        "orbit_determination_date" : "2017-04-06 08:45:55",
        "orbit_uncertainty" : "7",
        "minimum_orbit_intersection" : ".0382281",
        "jupiter_tisserand_invariant" : "6.388",
        "epoch_osculation" : "2458000.5",
        "eccentricity" : ".4309641791742819",
        "semi_major_axis" : ".9202509533250682",
        "inclination" : "14.77752337592535",
        "ascending_node_longitude" : "227.1663944146484",
        "orbital_period" : "322.4466289354041",
        "perihelion_distance" : ".5236557565909798",
        "perihelion_argument" : "136.4340797370743",
        "aphelion_distance" : "1.316846150059157",
        "perihelion_time" : "2458114.157665132387",
        "mean_anomaly" : "233.105327282376",
        "mean_motion" : "1.116463835235564",
        "equinox" : "J2000"
      }
    } ]
  }
}